{"version": 0.6, "generator": "Overpass API 0.7.62.8 e802775f", "osm3s": {"timestamp_osm_base": "2025-09-21T13:32:31Z", "copyright": "The data included in this document is from www.openstreetmap.org. The data is made available under ODbL."}, "elements": [{"type": "node", "id": 30092040, "lat": -1.2982549, "lon": 36.7630381, "tags": {"addr:housenumber": "Ngong Rd, Nairobi", "name": "Carrefour", "operator": "Carrefour", "shop": "supermarket"}}, {"type": "node", "id": 30324343, "lat": -1.2614308, "lon": 36.8018676, "tags": {"addr:city": "Nairobi", "addr:housenumber": "Sarit Centre,", "addr:street": "Karuna road", "brand": "Carrefour", "brand:wikidata": "Q217599", "brand:wikipedia": "fr:Carrefour (enseigne)", "name": "Carrefour", "opening_hours": "08:00-21:00", "operator": "Groupe Carrefour", "operator:wikidata": "Q3117359", "operator:wikipedia": "fr:Groupe Carrefour", "payment:coins": "yes", "payment:credit_cards": "yes", "payment:mastercard": "yes", "payment:notes": "yes", "payment:visa": "yes", "shop": "supermarket"}}, {"type": "node", "id": 30695833, "lat": -1.3164518, "lon": 36.8348783, "tags": {"addr:city": "Nairobi", "addr:street": "Mombasa Road", "brand": "Naivas", "brand:wikidata": "Q18379067", "name": "Naivas Supermarket", "shop": "supermarket"}}, {"type": "node", "id": 489246761, "lat": -1.3295149, "lon": 36.8891623, "tags": {"addr:city": "Nairobi", "addr:street": "Airport North Road", "name": "Nakumatt Embakasi Supermarket", "shop": "supermarket"}}, {"type": "node", "id": 494772713, "lat": -1.259642, "lon": 36.8185529, "tags": {"name": "Nakumatt Highridge", "shop": "supermarket"}}, {"type": "node", "id": 494772725, "lat": -1.2593846, "lon": 36.8178663, "tags": {"addr:city": "Nairobi", "addr:street": "Pramukh Swami Avenue", "name": "Chandarana Food Plus Supermarket Ltd.", "shop": "supermarket"}}, {"type": "node", "id": 521103444, "lat": -1.3068216, "lon": 36.8020059, "tags": {"name": "Fairlane", "shop": "supermarket"}}, {"type": "node", "id": 580333601, "lat": -1.2306161, "lon": 36.8135912}, {"type": "node", "id": 580333609, "lat": -1.2307256, "lon": 36.8138737}, {"type": "node", "id": 597647390, "lat": -1.2499888, "lon": 36.8202489, "tags": {"addr:city": "Nairobi", "addr:street": "Limuru Road", "name": "Onn The Way Supermarket Muthaiga", "phone": "+254 787 689 689", "shop": "supermarket", "website": "https://onntheway.com/"}}, {"type": "node", "id": 612007089, "lat": -1.3103868, "lon": 36.7958157, "tags": {"name": "LainiI Saba Market", "note": "open air market", "opening_hours": "24/7", "shop": "supermarket"}}, {"type": "node", "id": 612007705, "lat": -1.3122214, "lon": 36.797677, "tags": {"name": "Kaloki Super Market", "opening_hours": "Mo-Fr 08:30-20:00", "shop": "supermarket"}}, {"type": "node", "id": 612008449, "lat": -1.315167, "lon": 36.7797164, "tags": {"name": "cereals", "opening_hours": "08:00-21:00", "organic": "only", "shop": "supermarket"}}, {"type": "node", "id": 612008494, "lat": -1.3102203, "lon": 36.7760353, "tags": {"check_date": "2023-05-02", "name": "Grocery", "organic": "only", "shop": "supermarket"}}, {"type": "node", "id": 612008948, "lat": -1.3133438, "lon": 36.7967341, "tags": {"check_date": "2023-04-26", "name": "Wholesale", "shop": "supermarket"}}, {"type": "node", "id": 612008949, "lat": -1.3132941, "lon": 36.7969956, "tags": {"name": "Wholesale", "shop": "supermarket"}}, {"type": "node", "id": 612009211, "lat": -1.3088987, "lon": 36.7731126, "tags": {"name": "m.cliff mini mart", "shop": "supermarket"}}, {"type": "node", "id": 650226622, "lat": -1.2958319, "lon": 36.8873124, "tags": {"addr:city": "Nairobi", "addr:street": "Outer Ring Road", "name": "Naivas Eastgate", "shop": "supermarket"}}, {"type": "node", "id": 744432249, "lat": -1.3007033, "lon": 36.7873227, "tags": {"name": "Nakumatt Prestige", "shop": "supermarket"}}, {"type": "node", "id": 762025979, "lat": -1.2816587, "lon": 36.8169366, "tags": {"brand": "Carrefour", "brand:wikidata": "Q217599", "check_date": "2024-09-08", "name": "Carrefour", "opening_hours": "07:00-21:30", "shop": "supermarket"}}, {"type": "node", "id": 1038172446, "lat": -1.2564428, "lon": 36.8738935, "tags": {"name": "Multy Supermarket", "shop": "supermarket"}}, {"type": "node", "id": 1038193545, "lat": -1.2657625, "lon": 36.8556579, "tags": {"name": "Urban Supermarket", "name:it": "Urban", "shop": "supermarket"}}, {"type": "node", "id": 1038202695, "lat": -1.2581726, "lon": 36.8626972, "tags": {"name": "Sokomoko wholesales", "shop": "supermarket"}}, {"type": "node", "id": 1038219147, "lat": -1.2528009, "lon": 36.8723022, "tags": {"name": "Economy supermarket", "name:it": "Economy", "shop": "supermarket"}}, {"type": "node", "id": 1038219170, "lat": -1.2507017, "lon": 36.8740233, "tags": {"name": "Lucky Star supe market", "shop": "supermarket"}}, {"type": "node", "id": 1102330622, "lat": -1.2906488, "lon": 36.77061}, {"type": "node", "id": 1102330697, "lat": -1.2905272, "lon": 36.770432}, {"type": "node", "id": 1102330699, "lat": -1.2905542, "lon": 36.7706141}, {"type": "node", "id": 1102330705, "lat": -1.2906409, "lon": 36.7704271}, {"type": "node", "id": 1103092329, "lat": -1.2591188, "lon": 36.8643135, "tags": {"name": "Sayun supermarket", "name:it": "Sayun", "shop": "supermarket"}}, {"type": "node", "id": 1103092469, "lat": -1.2608175, "lon": 36.8634499, "tags": {"name": "Ngololo Supermarket", "shop": "supermarket"}}, {"type": "node", "id": 1110239847, "lat": -1.2656463, "lon": 36.8455975, "tags": {"name": "Wa Caro", "shop": "supermarket"}}, {"type": "node", "id": 1111451075, "lat": -1.2565217, "lon": 36.8737266, "tags": {"name": "Ansar Supermarket", "shop": "supermarket"}}, {"type": "node", "id": 1111451119, "lat": -1.2594324, "lon": 36.8688305, "tags": {"name": "Mini price supermarket", "name:it": "Mini Price", "shop": "supermarket"}}, {"type": "node", "id": 1111566404, "lat": -1.2563541, "lon": 36.8730578, "tags": {"name": "Ngei 1 Super market", "name:it": "Ngei 1", "shop": "supermarket"}}, {"type": "node", "id": 1111587206, "lat": -1.2505325, "lon": 36.8763456, "tags": {"name": "Smart Choice", "shop": "supermarket"}}, {"type": "node", "id": 1112884985, "lat": -1.2596832, "lon": 36.8625912, "tags": {"name": "kiwanza store", "shop": "supermarket"}}, {"type": "node", "id": 1123193374, "lat": -1.2608127, "lon": 36.8670314, "tags": {"name": "Sayuni Supermarket Equity Agent", "shop": "supermarket"}}, {"type": "node", "id": 1123193376, "lat": -1.2578671, "lon": 36.8673392, "tags": {"name": "Economy Supermarket", "shop": "supermarket"}}, {"type": "node", "id": 1123193415, "lat": -1.258944, "lon": 36.8668912, "tags": {"name": "Osaka Sup\u0161ermarket Store", "name:it": "Osaka", "shop": "supermarket"}}, {"type": "node", "id": 1123201095, "lat": -1.2588608, "lon": 36.8688164, "tags": {"name": "Smart choice supermarket", "name:it": "Smart Choice", "shop": "supermarket"}}, {"type": "node", "id": 1124602200, "lat": -1.2600652, "lon": 36.8650035, "tags": {"name": "Gladys supermarket", "shop": "supermarket"}}, {"type": "node", "id": 1124602225, "lat": -1.2598867, "lon": 36.8649163, "tags": {"name": "Centaline Supermarket", "shop": "supermarket"}}, {"type": "node", "id": 1177395457, "lat": -1.2850978, "lon": 36.8197545}, {"type": "node", "id": 1177395465, "lat": -1.2848565, "lon": 36.8196276}, {"type": "node", "id": 1177395471, "lat": -1.2846114, "lon": 36.8197701}, {"type": "node", "id": 1177395477, "lat": -1.2849788, "lon": 36.8199811}, {"type": "node", "id": 1191116536, "lat": -1.3234327, "lon": 36.8031443}, {"type": "node", "id": 1191116544, "lat": -1.3237448, "lon": 36.8026586}, {"type": "node", "id": 1191116584, "lat": -1.3245124, "lon": 36.8029129}, {"type": "node", "id": 1191116639, "lat": -1.3235913, "lon": 36.8026651}, {"type": "node", "id": 1191116653, "lat": -1.3243426, "lon": 36.8034263}, {"type": "node", "id": 1191116669, "lat": -1.3235761, "lon": 36.8031918}, {"type": "node", "id": 1191116684, "lat": -1.3237277, "lon": 36.8027103}, {"type": "node", "id": 1375162459, "lat": -1.2850138, "lon": 36.8313442}, {"type": "node", "id": 1375162462, "lat": -1.284377, "lon": 36.8314848}, {"type": "node", "id": 1375162471, "lat": -1.2848811, "lon": 36.8313959}, {"type": "node", "id": 1375162479, "lat": -1.2850509, "lon": 36.8314661}, {"type": "node", "id": 1375162493, "lat": -1.2843683, "lon": 36.8315021}, {"type": "node", "id": 1375162494, "lat": -1.2844923, "lon": 36.8317859}, {"type": "node", "id": 1375622697, "lat": -1.2842583, "lon": 36.8260977}, {"type": "node", "id": 1375622745, "lat": -1.2840988, "lon": 36.8262227}, {"type": "node", "id": 1376649988, "lat": -1.2812671, "lon": 36.8249213}, {"type": "node", "id": 1376650010, "lat": -1.2810604, "lon": 36.824925}, {"type": "node", "id": 1376650016, "lat": -1.2812689, "lon": 36.8250257}, {"type": "node", "id": 1376650068, "lat": -1.2811491, "lon": 36.8250278}, {"type": "node", "id": 1376650071, "lat": -1.2810623, "lon": 36.8250293}, {"type": "node", "id": 1390288173, "lat": -1.2826298, "lon": 36.8266018}, {"type": "node", "id": 1390288178, "lat": -1.2828631, "lon": 36.8269711}, {"type": "node", "id": 1390288198, "lat": -1.2824582, "lon": 36.8267003}, {"type": "node", "id": 1390288207, "lat": -1.2826968, "lon": 36.8270865}, {"type": "node", "id": 1392128357, "lat": -1.2920423, "lon": 36.8405814}, {"type": "node", "id": 1392128363, "lat": -1.2919679, "lon": 36.8403245}, {"type": "node", "id": 1392128367, "lat": -1.2920936, "lon": 36.8404458}, {"type": "node", "id": 1392128368, "lat": -1.2919038, "lon": 36.8404364}, {"type": "node", "id": 1392128432, "lat": -1.2923865, "lon": 36.8406597}, {"type": "node", "id": 1392128469, "lat": -1.2924147, "lon": 36.840527}, {"type": "node", "id": 1419004979, "lat": -1.3180617, "lon": 36.8872411, "tags": {"name": "Furahamatt Supermarket", "shop": "supermarket"}}, {"type": "node", "id": 1419004989, "lat": -1.3148778, "lon": 36.885588, "tags": {"name": "Karama Supermarket", "shop": "supermarket"}}, {"type": "node", "id": 1419101738, "lat": -1.3195609, "lon": 36.8878526, "tags": {"name": "Muindi Mweusi supermarket Kwa Njenga", "shop": "supermarket"}}, {"type": "node", "id": 1419821932, "lat": -1.2817574, "lon": 36.8183031, "tags": {"name": "Nakumatt Lifestyle", "opening_hours": "24/7", "shop": "supermarket", "website": "http://www.nakumatt.co.ke/"}}, {"type": "node", "id": 1433439017, "lat": -1.2956568, "lon": 36.8607571}, {"type": "node", "id": 1433439018, "lat": -1.2956741, "lon": 36.8608454}, {"type": "node", "id": 1433439041, "lat": -1.2956151, "lon": 36.8604704}, {"type": "node", "id": 1433439052, "lat": -1.2956474, "lon": 36.8606354}, {"type": "node", "id": 1433439107, "lat": -1.2956934, "lon": 36.8606264}, {"type": "node", "id": 1433439162, "lat": -1.2958843, "lon": 36.8608042}, {"type": "node", "id": 1433439190, "lat": -1.2958113, "lon": 36.860432}, {"type": "node", "id": 1433439449, "lat": -1.2957167, "lon": 36.8607454}, {"type": "node", "id": 1435262706, "lat": -1.2757723, "lon": 36.822116}, {"type": "node", "id": 1435262708, "lat": -1.275721, "lon": 36.8219492}, {"type": "node", "id": 1435262757, "lat": -1.2756202, "lon": 36.8219802}, {"type": "node", "id": 1435262822, "lat": -1.2753901, "lon": 36.8222335}, {"type": "node", "id": 1435262845, "lat": -1.2756085, "lon": 36.8219423}, {"type": "node", "id": 1435262879, "lat": -1.2753272, "lon": 36.8220287}, {"type": "node", "id": 1453972964, "lat": -1.3138087, "lon": 36.8486953, "tags": {"name": "supermarket", "shop": "supermarket"}}, {"type": "node", "id": 1578600648, "lat": -1.311796, "lon": 36.8372359, "tags": {"name": "Homecare Enterprises", "shop": "supermarket"}}, {"type": "node", "id": 1635588108, "lat": -1.2931102, "lon": 36.7875833, "tags": {"addr:city": "Nairobi", "addr:housenumber": "Ground Floor, Yaya Centre,", "addr:street": "Argwings Kodhek Road", "check_date": "2023-05-11", "name": "Chandarana Supermarket", "shop": "supermarket"}}, {"type": "node", "id": 1720711114, "lat": -1.2832546, "lon": 36.8231612, "tags": {"addr:city": "Nairobi", "addr:street": "Moi Avenue", "check_date": "2023-05-11", "name": "Ebrahims Supermarket", "name:it": "Ebrahims", "shop": "supermarket"}}, {"type": "node", "id": 1720982953, "lat": -1.2836855, "lon": 36.8253214, "tags": {"addr:city": "Nairobi", "addr:postcode": "00100", "addr:street": "Tom Mboya Street", "alt_name": "QuickMart Tom Mboya", "branch": "Tom Mboya", "brand": "QuickMart", "brand:wikidata": "Q113012659", "name": "QuickMart", "operator": "Quickmart", "phone": "+254 700 444455", "shop": "supermarket", "website": "https://www.quickmart.co.ke/"}}, {"type": "node", "id": 1720982958, "lat": -1.2833536, "lon": 36.8283646, "tags": {"name": "Tuskys", "shop": "supermarket"}}, {"type": "node", "id": 1746645845, "lat": -1.3073187, "lon": 36.8025226, "tags": {"check_date": "2023-05-02", "name": "Golf Course Shopping Center", "shop": "supermarket"}}, {"type": "node", "id": 1762008306, "lat": -1.2971549, "lon": 36.8945462}, {"type": "node", "id": 1762008307, "lat": -1.2972947, "lon": 36.8946842}, {"type": "node", "id": 1762008308, "lat": -1.2973018, "lon": 36.8944029}, {"type": "node", "id": 1762008309, "lat": -1.2974398, "lon": 36.8945444}, {"type": "node", "id": 1762030992, "lat": -1.2905356, "lon": 36.9015384}, {"type": "node", "id": 1762030993, "lat": -1.2888774, "lon": 36.9000621}, {"type": "node", "id": 1762030999, "lat": -1.2889267, "lon": 36.899972}, {"type": "node", "id": 1762031001, "lat": -1.2897535, "lon": 36.9020008}, {"type": "node", "id": 1762031002, "lat": -1.2902825, "lon": 36.9010271}, {"type": "node", "id": 1762032250, "lat": -1.2892206, "lon": 36.902497}, {"type": "node", "id": 1762032251, "lat": -1.2879759, "lon": 36.9012216}, {"type": "node", "id": 1762037898, "lat": -1.2970642, "lon": 36.8941634, "tags": {"name": "Rikana Supermarket", "shop": "supermarket"}}, {"type": "node", "id": 1762068586, "lat": -1.3083468, "lon": 36.8227864, "tags": {"addr:city": "Nairobi West ward", "addr:housenumber": "Muhoho Ave, Nairobi", "addr:postcode": "0200", "brand": "Naivas", "brand:wikidata": "Q18379067", "name": "Naivas supermarket", "name:it": "Uchumi", "opening_hours": "Mo-Su 09:00-21:00", "operator": "Naivas", "payment:cash": "yes", "shop": "supermarket"}}, {"type": "node", "id": 1874195120, "lat": -1.3014386, "lon": 36.7801309, "tags": {"addr:city": "Nairobi", "addr:housenumber": "Uchumi Adams,", "addr:street": "Suna Road", "name": "Uchumi", "shop": "supermarket"}}, {"type": "node", "id": 1960065181, "lat": -1.3109198, "lon": 36.8355545, "tags": {"name": "Midas Supermarket", "shop": "supermarket"}}, {"type": "node", "id": 2091525550, "lat": -1.2639295, "lon": 36.7283049, "tags": {"shop": "supermarket"}}, {"type": "node", "id": 2137955367, "lat": -1.3004022, "lon": 36.781746, "tags": {"addr:city": "Nairobi", "addr:housenumber": "Ground Floor, Green House Mall, Adams Arcade,", "addr:postcode": "00100", "addr:street": "Ngong Road", "brand": "Naivas", "brand:wikidata": "Q18379067", "name": "Naivas Supermarket Greenhouse", "name:it": "Naivas", "shop": "supermarket", "wheelchair": "limited"}}, {"type": "node", "id": 2179954251, "lat": -1.310942, "lon": 36.8362456, "tags": {"name": "HomeDirect Supermarket", "shop": "supermarket"}}, {"type": "node", "id": 2344345563, "lat": -1.2378414, "lon": 36.8102929}, {"type": "node", "id": 2344345564, "lat": -1.2379075, "lon": 36.810423}, {"type": "node", "id": 2344345565, "lat": -1.2380425, "lon": 36.8103543}, {"type": "node", "id": 2344345566, "lat": -1.2379764, "lon": 36.8102242}, {"type": "node", "id": 2344361865, "lat": -1.2326846, "lon": 36.8734785, "tags": {"addr:city": "Nairobi", "addr:street": "Thika Road", "name": "Naivas Supermarket", "shop": "supermarket"}}, {"type": "node", "id": 2405829021, "lat": -1.240955, "lon": 36.8842388, "tags": {"name": "Bunyix supermarket", "shop": "supermarket"}}, {"type": "node", "id": 2405829029, "lat": -1.244272, "lon": 36.8885053, "tags": {"name": "Mini price supermarket", "shop": "supermarket"}}, {"type": "node", "id": 2405829038, "lat": -1.2409649, "lon": 36.8836055, "tags": {"name": "Top view supermarket", "shop": "supermarket"}}, {"type": "node", "id": 2405854925, "lat": -1.246407, "lon": 36.8789364, "tags": {"name": "Riverside supermarket", "shop": "supermarket"}}, {"type": "node", "id": 2405883337, "lat": -1.2397586, "lon": 36.8980003, "tags": {"name": "Happy view", "name:it": "Happy View", "shop": "supermarket"}}, {"type": "node", "id": 2405883344, "lat": -1.2438304, "lon": 36.8916039, "tags": {"name": "Nyar jimo shop", "shop": "supermarket"}}, {"type": "node", "id": 2405885984, "lat": -1.2474314, "lon": 36.8843279, "tags": {"name": "Jovena Mini Market", "shop": "supermarket"}}, {"type": "node", "id": 2433372287, "lat": -1.2611134, "lon": 36.8392325, "tags": {"name": "Chandarana Supermarket", "shop": "supermarket"}}, {"type": "node", "id": 2511478541, "lat": -1.2979474, "lon": 36.7629922, "tags": {"name": "Zucchini", "shop": "supermarket"}}, {"type": "node", "id": 2528594221, "lat": -1.2937869, "lon": 36.8510734}, {"type": "node", "id": 2528594223, "lat": -1.29387, "lon": 36.8514435}, {"type": "node", "id": 2528594224, "lat": -1.2937815, "lon": 36.8514703}, {"type": "node", "id": 2528594225, "lat": -1.2937011, "lon": 36.8510975}, {"type": "node", "id": 2627546559, "lat": -1.3434274, "lon": 36.7649647, "tags": {"addr:city": "Nairobi", "addr:housenumber": "Langata Rd, Nairobi", "addr:street": "Langata Road", "name": "Nakumatt Galleria", "shop": "supermarket", "wheelchair": "yes"}}, {"type": "node", "id": 2682435033, "lat": -1.2595581, "lon": 36.8164249, "tags": {"shop": "supermarket"}}, {"type": "node", "id": 2705291183, "lat": -1.2485671, "lon": 36.7973605, "tags": {"name": "Double Touch", "shop": "supermarket"}}, {"type": "node", "id": 3032456378, "lat": -1.2862317, "lon": 36.8907031, "tags": {"addr:city": "Nairobi", "addr:street": "Moi Drive", "name": "Satellite Supermarket", "shop": "supermarket"}}, {"type": "node", "id": 3032456381, "lat": -1.2852411, "lon": 36.8941738, "tags": {"addr:city": "Umoja Estate", "addr:street": "Moi Drive", "name": "Nabuto Supermarket", "shop": "supermarket"}}, {"type": "node", "id": 3032456387, "lat": -1.2878047, "lon": 36.8914782, "tags": {"addr:city": "Umoja Estate", "addr:street": "Moi Drive", "name": "Jeska Supermarket", "shop": "supermarket"}}, {"type": "node", "id": 3032456388, "lat": -1.2847299, "lon": 36.8842314, "tags": {"addr:city": "Umoja Estate", "addr:street": "Outer Ring Road", "name": "Dimples Supermarket", "shop": "supermarket"}}, {"type": "node", "id": 3032456395, "lat": -1.279382, "lon": 36.8776177, "tags": {"addr:city": "Buruburu", "addr:street": "Mumias South Road", "name": "Mesora Supermarket", "shop": "supermarket", "toilets:wheelchair": "no", "wheelchair": "yes"}}, {"type": "node", "id": 3183497018, "lat": -1.2605605, "lon": 36.7098081, "tags": {"addr:city": "Kikuyu", "addr:street": "Waiyaki Way", "name": "Tuskys Supermarket", "name:en": "Shell", "shop": "supermarket"}}, {"type": "node", "id": 3336751389, "lat": -1.233328, "lon": 36.8727567, "tags": {"addr:city": "Nairobi", "addr:street": "Thika Road", "alt_name": "Quickmart Roasters", "branch": "Jipange", "brand": "QuickMart", "brand:wikidata": "Q113012659", "name": "QuickMart Jipange", "shop": "supermarket"}}, {"type": "node", "id": 3519591083, "lat": -1.3233844, "lon": 36.7070292, "tags": {"addr:city": "Nairobi", "addr:street": "Langata Road", "name": "Karen Provisions Store (KPS)", "shop": "supermarket"}}, {"type": "node", "id": 4042574588, "lat": -1.230825, "lon": 36.8138351}, {"type": "node", "id": 4042576999, "lat": -1.2307154, "lon": 36.8135527}, {"type": "node", "id": 4075659130, "lat": -1.2944514, "lon": 36.7872314, "tags": {"addr:city": "Nairobi", "addr:street": "Ring Road Kilimani", "check_date": "2023-04-15", "level": "0", "name": "Foodplus Chandarana Adlife", "shop": "supermarket"}}, {"type": "node", "id": 4270236321, "lat": -1.2883784, "lon": 36.9006611}, {"type": "node", "id": 4348537821, "lat": -1.3207849, "lon": 36.7040394, "tags": {"addr:housenumber": "Carrefour The Hub Karen", "brand": "Carrefour", "brand:wikidata": "Q217599", "brand:wikipedia": "fr:Carrefour (enseigne)", "name": "Carrefour", "shop": "supermarket"}}, {"type": "node", "id": 4353511956, "lat": -1.3221852, "lon": 36.773682, "tags": {"addr:city": "Nairobi", "addr:housenumber": "Nairobi City", "addr:street": "Sasuma Crescent", "check_date": "2023-05-12", "name": "Neibas Supermarket, Lang'ata", "shop": "supermarket"}}, {"type": "node", "id": 4355628531, "lat": -1.3258264, "lon": 36.7917343, "tags": {"name": "Penny Supermarket", "shop": "supermarket"}}, {"type": "node", "id": 4421833595, "lat": -1.3219424, "lon": 36.8271459, "tags": {"name": "Naivas South C", "opening_hours": "Mo-Su 08:30-20:30", "shop": "supermarket"}}, {"type": "node", "id": 4739716934, "lat": -1.2668322, "lon": 36.9048357, "tags": {"name": "Tuskys", "name:en": "Tuskys", "shop": "supermarket"}}, {"type": "node", "id": 4793984321, "lat": -1.2476349, "lon": 36.8726223, "tags": {"addr:city": "Nairobi", "addr:street": "Outer Ring Road", "brand": "Naivas", "brand:wikidata": "Q18379067", "name": "Naivas Ruaraka", "name:en": "Naivas", "phone": "+254 202102842", "shop": "supermarket", "website": "https://naivas.info/locations/naivas-ruaraka/"}}, {"type": "node", "id": 4823712522, "lat": -1.2320445, "lon": 36.8782614, "tags": {"addr:city": "Nairobi", "addr:street": "Thika Road", "name": "Game Stores Kenya", "opening_hours": "Mo-Sa 09:30-20:00; Su 10:00-16:00", "shop": "supermarket", "website": "http://www.gamestores.co.ke"}}, {"type": "node", "id": 4838514230, "lat": -1.3281089, "lon": 36.8827871, "tags": {"addr:city": "Nairobi", "addr:street": "Mombasa Road", "name": "Bonjour", "name:en": "Bonjour", "shop": "supermarket"}}, {"type": "node", "id": 4878721132, "lat": -1.2540987, "lon": 36.7919459}, {"type": "node", "id": 4878721133, "lat": -1.2540058, "lon": 36.7920591}, {"type": "node", "id": 4878721134, "lat": -1.2539464, "lon": 36.7919693}, {"type": "node", "id": 4878721135, "lat": -1.2540356, "lon": 36.7920759}, {"type": "node", "id": 4878721136, "lat": -1.2541391, "lon": 36.7920175}, {"type": "node", "id": 5123928636, "lat": -1.267532, "lon": 36.9053718, "tags": {"addr:city": "Nairobi", "addr:street": "Koma Rock Road", "name": "K-Mall Komarok", "shop": "supermarket"}}, {"type": "node", "id": 5221207082, "lat": -1.28279, "lon": 36.9596243, "tags": {"addr:city": "Nairobi", "addr:street": "Eastern Bypass", "name": "Quickmart Utawala", "opening_hours": "PH,Mo-Su 00:00-24:00+", "operator": "Private", "shop": "supermarket"}}, {"type": "node", "id": 5269521621, "lat": -1.279699, "lon": 36.712348, "tags": {"addr:housenumber": "1QuickmartPlaza", "addr:street": "Kikuyu Rd.", "name": "Quickmart Kikuyu", "shop": "supermarket"}}, {"type": "node", "id": 5328489329, "lat": -1.2647994, "lon": 36.802732, "tags": {"brand": "Naivas", "brand:wikidata": "Q18379067", "check_date": "2024-09-05", "name": "Naivas", "name:it": "Naivas", "opening_hours": "24/7", "operator": "Naivas", "shop": "supermarket"}}, {"type": "node", "id": 5330949488, "lat": -1.2802139, "lon": 36.7704244, "tags": {"addr:city": "Nairobi", "addr:street": "James Gichuru Road", "check_date": "2023-05-02", "name": "Chandarana Foodplus Supermarket (Lavington Branch)", "shop": "supermarket"}}, {"type": "node", "id": 5333185203, "lat": -1.2782468, "lon": 36.7697126, "tags": {"name": "Nakumatt Lavington", "shop": "supermarket"}}, {"type": "node", "id": 5333304037, "lat": -1.2836202, "lon": 36.7587244, "tags": {"check_date": "2023-05-02", "name": "Village Supermarket", "shop": "supermarket"}}, {"type": "node", "id": 5334825305, "lat": -1.2598277, "lon": 36.7772994, "tags": {"addr:city": "Nairobi", "addr:street": "Waiyaki Way", "name": "HassConsult Ltd;Chandarana Food Plus Supermarkets Ltd.", "office": "estate_agent", "shop": "supermarket"}}, {"type": "node", "id": 5334826919, "lat": -1.2597944, "lon": 36.7775298, "tags": {"name": "Zucchini Greengrocers Limited - ABC Place", "shop": "supermarket"}}, {"type": "node", "id": 5334971802, "lat": -1.2948764, "lon": 36.7475484, "tags": {"name": "Joyway Supermarket Githembe", "name:it": "Joyland", "shop": "supermarket"}}, {"type": "node", "id": 5339423498, "lat": -1.2704333, "lon": 36.8118793, "tags": {"addr:city": "Nairobi", "addr:housenumber": "72", "addr:street": "Muthithi Road", "name": "Fruity Fruits", "shop": "supermarket"}}, {"type": "node", "id": 5340939007, "lat": -1.2610898, "lon": 36.8214404, "tags": {"name": "Highridge Superduka", "shop": "supermarket"}}, {"type": "node", "id": 5340979321, "lat": -1.2627049, "lon": 36.824075, "tags": {"name": "Tuskys Agakhan", "shop": "supermarket"}}, {"type": "node", "id": 5341086838, "lat": -1.2741137, "lon": 36.8189855}, {"type": "node", "id": 5341086839, "lat": -1.2741908, "lon": 36.818944}, {"type": "node", "id": 5341086840, "lat": -1.2743054, "lon": 36.8191001}, {"type": "node", "id": 5341086841, "lat": -1.2741236, "lon": 36.819203}, {"type": "node", "id": 5341086842, "lat": -1.27409, "lon": 36.8191496}, {"type": "node", "id": 5343809421, "lat": -1.2729908, "lon": 36.8189504, "tags": {"name": "Broadline Supermarket", "opening_hours": "Mo-Su 09:00-18:00", "shop": "supermarket"}}, {"type": "node", "id": 5348815016, "lat": -1.2252732, "lon": 36.8381507}, {"type": "node", "id": 5348815017, "lat": -1.2261482, "lon": 36.8384059}, {"type": "node", "id": 5348815018, "lat": -1.2260825, "lon": 36.8386312}, {"type": "node", "id": 5348815019, "lat": -1.2252075, "lon": 36.8383761}, {"type": "node", "id": 5349001060, "lat": -1.2499124, "lon": 36.8203818, "tags": {"name": "Muthaiga Mini Market", "shop": "supermarket"}}, {"type": "node", "id": 5352466007, "lat": -1.2640185, "lon": 36.802103, "tags": {"addr:city": "Nairobi", "addr:street": "Ring Road Parklands", "branch": "Westlands", "brand": "QuickMart", "brand:wikidata": "Q113012659", "check_date": "2024-09-05", "name": "QuickMart", "name:it": "Tuskys", "opening_hours": "24/7", "operator": "Tuskys", "shop": "supermarket"}}, {"type": "node", "id": 5352499095, "lat": -1.2379507, "lon": 36.8104691, "tags": {"addr:city": "Nairobi", "addr:street": "United Nations Avenue", "name": "Essentials MART", "shop": "supermarket"}}, {"type": "node", "id": 5352782744, "lat": -1.215895, "lon": 36.7996164, "tags": {"addr:city": "Nairobi", "addr:street": "Limuru Road", "name": "Chandarana FoodPlus Roslyn Riviera", "shop": "supermarket"}}, {"type": "node", "id": 5353848943, "lat": -1.2111952, "lon": 36.7948636, "tags": {"addr:city": "Nairobi", "addr:housenumber": "Two Rivers Mall Limuru Road", "addr:street": "Two Rivers Road", "brand": "Carrefour", "brand:wikidata": "Q217599", "brand:wikipedia": "fr:Carrefour (enseigne)", "check_date": "2023-04-08", "name": "Carrefour", "operator": "Carrefour", "shop": "supermarket"}}, {"type": "node", "id": 5360807820, "lat": -1.323348, "lon": 36.7068445, "tags": {"name": "Chandarana Food Plus Supermarkets Ltd.", "shop": "supermarket"}}, {"type": "node", "id": 5378551750, "lat": -1.2944675, "lon": 36.812394, "tags": {"addr:city": "Nairobi", "addr:street": "Ragati Road", "name": "Times Supermarket", "shop": "supermarket"}}, {"type": "node", "id": 5411903689, "lat": -1.2992193, "lon": 36.7654797, "tags": {"addr:city": "Nairobi", "addr:housenumber": "Piedmont Plaza, 2000,", "addr:street": "Ngong Road", "name": "JD's Supermarket", "shop": "supermarket"}}, {"type": "node", "id": 5414335721, "lat": -1.2945013, "lon": 36.7983291, "tags": {"addr:city": "Nairobi", "addr:street": "Argwings Kodhek Road", "check_date": "2023-05-11", "name": "Safeway Hypermarkets", "shop": "supermarket"}}, {"type": "node", "id": 5448456554, "lat": -1.1867943, "lon": 36.9068202, "tags": {"name": "Lillies Supermarket", "shop": "supermarket"}}, {"type": "node", "id": 5448459889, "lat": -1.1838746, "lon": 36.9014305, "tags": {"addr:city": "Nairobi", "addr:postcode": "00100", "addr:street": "Kahawa Station Road", "name": "Cleanshelf Kahawa West", "phone": "+254758193502", "shop": "supermarket", "website": "https://cleanshelf.co.ke/"}}, {"type": "node", "id": 5470451922, "lat": -1.2323248, "lon": 36.8785461, "tags": {"addr:city": "Nairobi", "addr:housenumber": "Garden City Mall,", "addr:street": "Thika Road", "name": "Game Supermarket", "name:it": "Game", "shop": "supermarket"}}, {"type": "node", "id": 5496066044, "lat": -1.2870384, "lon": 36.8523838, "tags": {"addr:city": "Nairobi", "addr:street": "First Avenue Eastleigh", "name": "Sacha Supermarket", "shop": "supermarket"}}, {"type": "node", "id": 5496079283, "lat": -1.2946861, "lon": 36.8759599, "tags": {"addr:city": "Nairobi", "addr:street": "Rabai Road", "name": "Naivas Supermarket Buruburu", "shop": "supermarket"}}, {"type": "node", "id": 5539620101, "lat": -1.2733518, "lon": 36.8175947, "tags": {"addr:city": "Nairobi", "addr:street": "Ngara Road", "name": "Nilkanth General Supermarket", "shop": "supermarket"}}, {"type": "node", "id": 5555074037, "lat": -1.2870826, "lon": 36.8252547, "tags": {"addr:city": "Nairobi", "addr:street": "Aga Khan Walk", "name": "Uchumi Supermarket", "shop": "supermarket"}}, {"type": "node", "id": 5555074071, "lat": -1.2872919, "lon": 36.8269277, "tags": {"addr:city": "Nairobi", "addr:street": "Moi Avenue", "name": "Karrymart Downtown Supermarket", "shop": "supermarket"}}, {"type": "node", "id": 5555074075, "lat": -1.2882631, "lon": 36.8273494, "tags": {"addr:city": "Nairobi", "addr:street": "Moi Avenue", "brand": "Naivas", "brand:wikidata": "Q18379067", "name": "Naivas Development House Moi Avenue", "shop": "supermarket"}}, {"type": "node", "id": 5569622234, "lat": -1.2831307, "lon": 36.8198245}, {"type": "node", "id": 5569622235, "lat": -1.2832963, "lon": 36.8199094}, {"type": "node", "id": 5569622236, "lat": -1.2832249, "lon": 36.8200485}, {"type": "node", "id": 5569622237, "lat": -1.2830593, "lon": 36.8199636}, {"type": "node", "id": 5580938676, "lat": -1.2682273, "lon": 36.7537694, "tags": {"addr:city": "Nairobi", "addr:street": "Muratha Road", "name": "Bottom Line Supermarket", "shop": "supermarket"}}, {"type": "node", "id": 5726182620, "lat": -1.2295648, "lon": 36.8404917, "tags": {"addr:city": "Nairobi", "addr:street": "Kiambu Road", "name": "Beyond Fruits", "shop": "supermarket"}}, {"type": "node", "id": 5738664819, "lat": -1.2584545, "lon": 36.8188906, "tags": {"addr:city": "Nairobi", "addr:street": "Pramukh Swami Avenue", "name": "Tuskys Highridge", "operator": "Tuskys", "payment:cash": "yes", "payment:credit_cards": "yes", "shop": "supermarket"}}, {"type": "node", "id": 5743459430, "lat": -1.2063204, "lon": 36.8942985, "tags": {"addr:city": "Githurai", "addr:street": "Kamiti Road", "name": "Powerstar Express Supermarket", "shop": "supermarket"}}, {"type": "node", "id": 5743474194, "lat": -1.2093522, "lon": 36.8941051, "tags": {"addr:city": "Nairobi", "addr:street": "Kamiti Road", "name": "Powerstar supermarket", "shop": "supermarket"}}, {"type": "node", "id": 5871155377, "lat": -1.2847155, "lon": 36.8303338, "tags": {"addr:city": "Nairobi", "addr:postcode": "00300", "addr:street": "Ronald Ngala Street", "name": "vspace.ke", "opening_hours": "24/7", "operator": "VSpace", "payment:cash": "yes", "payment:credit_cards": "yes", "payment:mobile_money": "yes", "shop": "supermarket"}}, {"type": "node", "id": 5886553697, "lat": -1.2708939, "lon": 36.9968775, "tags": {"addr:city": "Nairobi", "addr:street": "Kangundo Road", "name": "Quickmart", "shop": "supermarket"}}, {"type": "node", "id": 6084050127, "lat": -1.3006632, "lon": 36.779892, "tags": {"name": "Tuskys;Turskys", "shop": "supermarket"}}, {"type": "node", "id": 6103385713, "lat": -1.2876151, "lon": 36.8931932, "tags": {"addr:city": "Umoja Estate", "addr:street": "Moi Drive", "name": "Skymart Supermarket", "operator": "Private", "shop": "supermarket"}}, {"type": "node", "id": 6105059956, "lat": -1.2496322, "lon": 36.8613539, "tags": {"addr:city": "Nairobi", "addr:street": "Thika Road", "name": "Tuskys", "shop": "supermarket"}}, {"type": "node", "id": 6126721035, "lat": -1.2926791, "lon": 36.8218813, "tags": {"addr:city": "Nairobi", "addr:street": "Haile Selassie Avenue", "name": "Tuskys Supermarket", "shop": "supermarket"}}, {"type": "node", "id": 6140597685, "lat": -1.2810206, "lon": 36.9058727, "tags": {"addr:city": "Nairobi", "addr:street": "Kayole Spine Road", "name": "Cleanshelf", "shop": "supermarket"}}, {"type": "node", "id": 6171147716, "lat": -1.2705182, "lon": 36.8118184, "tags": {"addr:city": "Nairobi", "addr:housenumber": "72", "addr:street": "Muthithi Road", "name": "Chiknik Distributors", "shop": "supermarket"}}, {"type": "node", "id": 6173489654, "lat": -1.2570221, "lon": 36.9226773, "tags": {"addr:city": "Nairobi", "addr:street": "Kangundo Road", "name": "Neema Supermarket", "shop": "supermarket"}}, {"type": "node", "id": 6173489655, "lat": -1.2569895, "lon": 36.9225076, "tags": {"addr:city": "Nairobi", "addr:street": "Kangundo Road", "name": "Hill Mart Supermarket", "shop": "supermarket"}}, {"type": "node", "id": 6207546828, "lat": -1.3237125, "lon": 36.8430676, "tags": {"addr:city": "Nairobi", "addr:street": "Mombasa Road", "name": "Souk Bazaar", "shop": "supermarket"}}, {"type": "node", "id": 6207692007, "lat": -1.3316099, "lon": 36.8666226, "tags": {"addr:city": "Nairobi", "addr:street": "Mombasa Road", "name": "Tuskys Supermarket (Chap Chap Libra)", "shop": "supermarket"}}, {"type": "node", "id": 6218081303, "lat": -1.2175238, "lon": 36.8968326, "tags": {"addr:city": "Nairobi", "addr:street": "Kasarani Mwiki Road", "name": "Powerstar Supermarket Kasarani", "shop": "supermarket"}}, {"type": "node", "id": 6224913778, "lat": -1.2527193, "lon": 36.8564277, "tags": {"addr:city": "Nairobi", "addr:street": "Thika Road", "name": "Grit Supermarket", "shop": "supermarket"}}, {"type": "node", "id": 6224915281, "lat": -1.2341506, "lon": 36.8707384, "tags": {"addr:city": "Nairobi", "addr:street": "Garden Estate Road", "name": "Mulika Mini Market", "shop": "supermarket"}}, {"type": "node", "id": 6224915422, "lat": -1.2200512, "lon": 36.8890684, "tags": {"addr:city": "Nairobi", "addr:street": "TRM Drive", "brand": "Carrefour", "brand:wikidata": "Q217599", "brand:wikipedia": "fr:Carrefour (enseigne)", "name": "Carrefour", "operator": "Groupe Carrefour", "operator:wikidata": "Q3117359", "operator:wikipedia": "fr:Groupe Carrefour", "shop": "supermarket"}}, {"type": "node", "id": 6249063079, "lat": -1.21874, "lon": 36.8993359, "tags": {"addr:city": "Nairobi", "addr:street": "Kasarani Mwiki Road", "name": "Dorte Everfresh Grocery & Cereals", "shop": "supermarket"}}, {"type": "node", "id": 6249063080, "lat": -1.2181843, "lon": 36.8994027, "tags": {"addr:city": "Nairobi", "addr:street": "Kasarani Mwiki Road", "name": "Kassmatt Supermarket", "shop": "supermarket"}}, {"type": "node", "id": 6249063499, "lat": -1.2194778, "lon": 36.8950718, "tags": {"addr:city": "Nairobi", "addr:street": "Kasarani Mwiki Road", "name": "Wabuti Supermarket", "shop": "supermarket"}}, {"type": "node", "id": 6249063511, "lat": -1.2171368, "lon": 36.9002303, "tags": {"addr:city": "Nairobi", "addr:street": "Judah Avenue", "name": "Famcon Supermarket", "shop": "supermarket"}}, {"type": "node", "id": 6249063519, "lat": -1.2185973, "lon": 36.9025886, "tags": {"addr:city": "Nairobi", "addr:street": "Kasarani Mwiki Road", "name": "Jikuze Supermarket", "payment:cash": "yes", "payment:mpesa": "yes", "shop": "supermarket"}}, {"type": "node", "id": 6249063520, "lat": -1.2186504, "lon": 36.9027861, "tags": {"addr:city": "Nairobi", "addr:street": "Kasarani Mwiki Road", "name": "LeasherMatt Supermarket,Kasarani", "shop": "supermarket"}}, {"type": "node", "id": 6249063530, "lat": -1.2169864, "lon": 36.9032325, "tags": {"addr:city": "Nairobi", "addr:street": "Seasons Road", "name": "Kasamat Supermarket", "shop": "supermarket"}}, {"type": "node", "id": 6249063535, "lat": -1.2145401, "lon": 36.9042012, "tags": {"addr:city": "Nairobi", "addr:street": "Seasons Road", "name": "Slymac Mini Mart", "shop": "supermarket"}}, {"type": "node", "id": 6249168568, "lat": -1.2298871, "lon": 36.927337, "tags": {"addr:city": "Nairobi", "addr:street": "Kasarani Mwiki Road", "name": "Thikamatt", "shop": "supermarket"}}, {"type": "node", "id": 6249168600, "lat": -1.2353151, "lon": 36.9331983, "tags": {"addr:city": "Nairobi", "addr:street": "Kasarani Mwiki Road", "name": "Rongai supermarket", "shop": "supermarket"}}, {"type": "node", "id": 6249434332, "lat": -1.2356239, "lon": 36.9339528, "tags": {"addr:city": "Nairobi", "addr:street": "Kasarani Mwiki Road", "name": "Kassmatt Supermarket", "shop": "supermarket"}}, {"type": "node", "id": 6249531815, "lat": -1.2154377, "lon": 36.8954672, "tags": {"addr:city": "Nairobi", "addr:street": "Thika Road", "name": "Gesta Supermarket", "shop": "supermarket"}}, {"type": "node", "id": 6249531854, "lat": -1.2041812, "lon": 36.9159494, "tags": {"addr:city": "Nairobi", "addr:street": "Thika Road", "name": "Kassmat Supermarket", "shop": "supermarket"}}, {"type": "node", "id": 6257561364, "lat": -1.2278982, "lon": 36.8055626, "tags": {"addr:city": "Nairobi", "addr:street": "Limuru Road", "branch": "Village Market", "brand": "Carrefour", "brand:wikidata": "Q217599", "name": "Carrefour", "shop": "supermarket"}}, {"type": "node", "id": 6259798912, "lat": -1.3120376, "lon": 36.8989506, "tags": {"addr:city": "Nairobi", "addr:street": "Solidarity Street", "name": "Jacknice Supermarket", "shop": "supermarket"}}, {"type": "node", "id": 6259798914, "lat": -1.3120147, "lon": 36.8956399, "tags": {"addr:city": "Nairobi", "addr:street": "Amani Court", "name": "Harakisha Mini-Market", "shop": "supermarket"}}, {"type": "node", "id": 6259798931, "lat": -1.3168308, "lon": 36.8960005, "tags": {"addr:city": "Nairobi", "addr:street": "Outer Ring Road", "name": "Tumaini Supermarket", "shop": "supermarket"}}, {"type": "node", "id": 6259798935, "lat": -1.3137528, "lon": 36.8949022, "tags": {"addr:city": "Nairobi", "addr:street": "Fedha Road", "brand": "QuickMart", "brand:wikidata": "Q113012659", "name": "QuickMart", "shop": "supermarket"}}, {"type": "node", "id": 6259860368, "lat": -1.2893383, "lon": 36.8876825, "tags": {"addr:city": "Nairobi", "addr:street": "Off Outer Ring Road", "name": "Super Deals Supermarket Real", "shop": "supermarket"}}, {"type": "node", "id": 6324976684, "lat": -1.1890825, "lon": 36.9211529, "tags": {"shop": "supermarket"}}, {"type": "node", "id": 6395368822, "lat": -1.2899363, "lon": 36.773464, "tags": {"branch": "Supermarket Lavington", "brand": "QuickMart", "brand:wikidata": "Q113012659", "check_date": "2023-04-26", "name": "QuickMart", "shop": "supermarket"}}, {"type": "node", "id": 6397800321, "lat": -1.2331317, "lon": 36.8787963, "tags": {"addr:city": "Nairobi", "addr:street": "Thika Road", "brand": "ShopRite", "brand:wikidata": "Q7501097", "brand:wikipedia": "en:ShopRite (United States)", "name": "ShopRite", "shop": "supermarket"}}, {"type": "node", "id": 6431597860, "lat": -1.284844, "lon": 36.8313088}, {"type": "node", "id": 6431597861, "lat": -1.2844989, "lon": 36.8314353}, {"type": "node", "id": 6431597862, "lat": -1.2844233, "lon": 36.8314668}, {"type": "node", "id": 6431597863, "lat": -1.2844996, "lon": 36.8314371}, {"type": "node", "id": 6455285768, "lat": -1.2962328, "lon": 36.8404252}, {"type": "node", "id": 6455285769, "lat": -1.2962981, "lon": 36.8405096}, {"type": "node", "id": 6455285770, "lat": -1.2965461, "lon": 36.8403175}, {"type": "node", "id": 6455285771, "lat": -1.2964808, "lon": 36.8402331}, {"type": "node", "id": 6554564028, "lat": -1.2846596, "lon": 36.8197954}, {"type": "node", "id": 6554564029, "lat": -1.2846437, "lon": 36.8198257}, {"type": "node", "id": 6554564030, "lat": -1.2848441, "lon": 36.8199311}, {"type": "node", "id": 6554564031, "lat": -1.2848527, "lon": 36.8199148}, {"type": "node", "id": 6554564032, "lat": -1.2848435, "lon": 36.8196524}, {"type": "node", "id": 6554564033, "lat": -1.2847101, "lon": 36.8195823}, {"type": "node", "id": 6573879252, "lat": -1.2838739, "lon": 36.8259357}, {"type": "node", "id": 6573879253, "lat": -1.2840334, "lon": 36.8258106}, {"type": "node", "id": 6819930254, "lat": -1.2648803, "lon": 36.9092695, "tags": {"addr:city": "Komarock", "addr:street": "Mwangaza Road", "name": "Maryland", "shop": "supermarket"}}, {"type": "node", "id": 6819930274, "lat": -1.250212, "lon": 36.9529649, "tags": {"addr:city": "Njiru", "addr:street": "Kangundo Road", "name": "Chokmatt", "shop": "supermarket"}}, {"type": "node", "id": 6827309041, "lat": -1.2154465, "lon": 36.8886373, "tags": {"addr:city": "Nairobi", "addr:street": "Lumumba 1st Avenue", "name": "Admart", "shop": "supermarket"}}, {"type": "node", "id": 6827309042, "lat": -1.215875, "lon": 36.8880723, "tags": {"addr:city": "Nairobi", "addr:street": "Lumumba Drive", "name": "Roymatt Supermarket", "phone": "+254 725 202860", "shop": "supermarket"}}, {"type": "node", "id": 6827320495, "lat": -1.213331, "lon": 36.8945208, "tags": {"addr:city": "Nairobi", "addr:street": "Off Kamiti Road", "name": "Budget", "shop": "supermarket"}}, {"type": "node", "id": 7169519863, "lat": -1.3198435, "lon": 36.7039821, "tags": {"addr:city": "Nairobi", "addr:street": "Dagoretti Road", "brand": "Carrefour", "brand:wikidata": "Q217599", "brand:wikipedia": "fr:Carrefour (enseigne)", "name": "Carrefour", "shop": "supermarket"}}, {"type": "node", "id": 7291845166, "lat": -1.3220082, "lon": 36.8021359, "tags": {"addr:city": "Nairobi", "addr:postcode": "00100", "addr:street": "Langata Road", "brand": "Naivas", "brand:wikidata": "Q18379067", "name": "Naivas Freedom Heights Mall", "shop": "supermarket", "website": "https://naivas.info/locations/"}}, {"type": "node", "id": 7341263969, "lat": -1.2583562, "lon": 36.8184573, "tags": {"name": "Chandarana Food Plus Supermarket Ltd.", "shop": "supermarket"}}, {"type": "node", "id": 7679232307, "lat": -1.2957736, "lon": 36.828251, "tags": {"shop": "supermarket"}}, {"type": "node", "id": 7846414730, "lat": -1.3579769, "lon": 36.908198, "tags": {"addr:city": "Nairobi", "addr:street": "Mombasa Road", "name": "Naivas Food Market", "shop": "supermarket"}}, {"type": "node", "id": 8120334793, "lat": -1.3049584, "lon": 36.9019018, "tags": {"addr:city": "Nairobi", "name": "Dil Mart Supermarket", "operator": "Unknown", "payment:cash": "yes", "payment:telephone_cards": "yes", "phone": "--", "shop": "supermarket"}}, {"type": "node", "id": 8120475934, "lat": -1.2982231, "lon": 36.9122799, "tags": {"addr:city": "Nairobi", "name": "Baraka Estate Shopping Mall", "operator": "Unknown", "payment:cash": "yes", "payment:telephone_cards": "yes", "phone": "--", "shop": "supermarket"}}, {"type": "node", "id": 8164646791, "lat": -1.2824691, "lon": 36.8159837, "tags": {"addr:city": "Nairobi", "addr:street": "Uhuru Highway", "brand": "Naivas", "brand:wikidata": "Q18379067", "name": "Naivas", "shop": "supermarket"}}, {"type": "node", "id": 8168762000, "lat": -1.3086332, "lon": 36.9024681, "tags": {"brand": "Naivas", "brand:wikidata": "Q18379067", "name": "Naivas Supermarket Fedha", "shop": "supermarket"}}, {"type": "node", "id": 8202067663, "lat": -1.2786595, "lon": 37.0304824, "tags": {"addr:city": "Nairobi", "addr:street": "Kangundo Road", "name": "Otomatt Supermarket Ruai", "shop": "supermarket"}}, {"type": "node", "id": 8202067665, "lat": -1.2815842, "lon": 37.0795725, "tags": {"name": "Waecon", "shop": "supermarket"}}, {"type": "node", "id": 8210168933, "lat": -1.3241498, "lon": 36.7828298, "tags": {"name": "Cleanshelf Supermarket", "operator": "Cleanshelf", "shop": "supermarket"}}, {"type": "node", "id": 8210385358, "lat": -1.2144004, "lon": 36.8920386}, {"type": "node", "id": 8210385359, "lat": -1.2149389, "lon": 36.8917277}, {"type": "node", "id": 8210385360, "lat": -1.2152368, "lon": 36.892244}, {"type": "node", "id": 8210385361, "lat": -1.2146984, "lon": 36.8925549}, {"type": "node", "id": 8210385362, "lat": -1.2129935, "lon": 36.8932887}, {"type": "node", "id": 8210385363, "lat": -1.2130327, "lon": 36.8932267}, {"type": "node", "id": 8210385364, "lat": -1.2134541, "lon": 36.8931237}, {"type": "node", "id": 8210385365, "lat": -1.2135194, "lon": 36.8933132}, {"type": "node", "id": 8210385366, "lat": -1.213243, "lon": 36.8933819}, {"type": "node", "id": 8210385367, "lat": -1.2132385, "lon": 36.893356}, {"type": "node", "id": 8210385368, "lat": -1.2130347, "lon": 36.8934026}, {"type": "node", "id": 8213846285, "lat": -1.2849108, "lon": 36.8313768, "tags": {"addr:city": "Nairobi", "addr:street": "Landhies Road", "brand": "QuickMart", "brand:wikidata": "Q113012659", "check_date": "2023-04-03", "name": "QuickMart", "shop": "supermarket"}}, {"type": "node", "id": 8231195976, "lat": -1.279245, "lon": 36.965925, "tags": {"name": "Magunas Utawala", "opening_hours": "Mo-Su 08:00-22:00", "opening_hours:covid19": "Mo-Su 08:00-20:00", "operator": "Magunas Supermarket", "payment:cash": "yes", "payment:credit_cards": "yes", "payment:mpesa": "yes", "payment:visa": "yes", "shop": "supermarket"}}, {"type": "node", "id": 8237558559, "lat": -1.2636307, "lon": 36.7634333, "tags": {"addr:city": "Nairobi", "addr:street": "Waiyaki Way", "brand": "QuickMart", "brand:wikidata": "Q113012659", "name": "QuickMart", "shop": "supermarket"}}, {"type": "node", "id": 8296786366, "lat": -1.3136754, "lon": 36.9150496, "tags": {"addr:city": "Nairobi", "addr:street": "Rd to Utawala Academy", "brand": "QuickMart", "brand:wikidata": "Q113012659", "name": "QuickMart", "shop": "supermarket"}}, {"type": "node", "id": 8300023514, "lat": -1.1835102, "lon": 36.9015966, "tags": {"addr:city": "Nairobi", "addr:postcode": "00100", "addr:street": "Kahawa Station Road", "alt_name": "QuickMart Kahawa West", "brand": "QuickMart", "brand:wikidata": "Q113012659", "name": "QuickMart", "shop": "supermarket"}}, {"type": "node", "id": 8342029551, "lat": -1.2923406, "lon": 36.8815784, "tags": {"addr:city": "Nairobi", "addr:street": "Sagam Road", "name": "Naivas", "shop": "supermarket"}}, {"type": "node", "id": 8370986578, "lat": -1.300412, "lon": 36.9084685, "tags": {"name": "Ojil Mart", "shop": "supermarket"}}, {"type": "node", "id": 8371978933, "lat": -1.2664166, "lon": 36.9902348, "tags": {"addr:city": "Nairobi", "addr:street": "Kangundo Road", "name": "sweetworld", "shop": "supermarket"}}, {"type": "node", "id": 8764023888, "lat": -1.2871983, "lon": 36.7452767, "tags": {"check_date": "2023-05-02", "condition": "good", "fee": "yes", "image": "https://kc.humanitarianresponse.info/attachment/original?media_file=mapkibera/attachments/1591164984279.jpg", "name": "Walmart Supermarket", "operational_status": "operational", "operator:funding": "private", "operator:type": "private", "shop": "supermarket"}}, {"type": "node", "id": 8883032995, "lat": -1.2814534, "lon": 36.8181534, "tags": {"addr:city": "Nairobi", "addr:street": "Monrovia Street", "brand": "Naivas", "brand:wikidata": "Q18379067", "name": "Naivas Lifestyle", "shop": "supermarket"}}, {"type": "node", "id": 8883032996, "lat": -1.2855691, "lon": 36.8278976, "tags": {"addr:city": "Nairobi", "addr:street": "Ronald Ngala Street", "brand": "Naivas", "brand:wikidata": "Q18379067", "name": "Naivas Ronald Ngala", "shop": "supermarket"}}, {"type": "node", "id": 8883032997, "lat": -1.2855912, "lon": 36.82772, "tags": {"addr:city": "Nairobi", "addr:street": "Ronald Ngala Street", "name": "Tusky'S Magic Express", "shop": "supermarket"}}, {"type": "node", "id": 8883032998, "lat": -1.2822401, "lon": 36.8237391, "tags": {"addr:city": "Nairobi", "addr:street": "Tom Mboya Street", "name": "Eastmatt", "shop": "supermarket"}}, {"type": "node", "id": 8901162637, "lat": -1.2981566, "lon": 36.7831953, "tags": {"addr:city": "Nairobi", "addr:street": "Kilimani Road", "alt_name": "QuickMart Kilimani", "branch": "KILIMANI", "brand": "QuickMart", "brand:wikidata": "Q113012659", "check_date": "2023-05-11", "name": "QuickMart", "shop": "supermarket"}}, {"type": "node", "id": 8916714747, "lat": -1.3021368, "lon": 36.8256227, "tags": {"addr:city": "Nairobi", "addr:street": "Uhuru Highway", "alt_name": "Carrefour Mega", "brand": "Carrefour", "brand:wikidata": "Q217599", "name": "Carrefour", "phone": "+254800221322", "shop": "supermarket"}}, {"type": "node", "id": 8916714749, "lat": -1.3122508, "lon": 36.8169343, "tags": {"addr:city": "Nairobi", "addr:street": "Langata Road", "brand": "QuickMart", "brand:wikidata": "Q113012659", "name": "QuickMart", "shop": "supermarket"}}, {"type": "node", "id": 9014259340, "lat": -1.2004343, "lon": 36.899999, "tags": {"addr:city": "Nairobi", "addr:street": "Kamiti Road", "name": "Leestar Supermarket Githurai", "shop": "supermarket"}}, {"type": "node", "id": 9020201617, "lat": -1.2062073, "lon": 36.9139594, "tags": {"addr:city": "Githurai", "addr:street": "Thika Road", "name": "Naivas", "shop": "supermarket"}}, {"type": "node", "id": 9193193556, "lat": -1.2891191, "lon": 36.7414489, "tags": {"name": "Saltes Supermarket", "shop": "supermarket"}}, {"type": "node", "id": 9193207602, "lat": -1.2893068, "lon": 36.7538944, "tags": {"name": "Waiyaki Supermarket", "shop": "supermarket"}}, {"type": "node", "id": 9418619697, "lat": -1.2336717, "lon": 36.8849565, "tags": {"name": "Kabsmatt Supermarket", "shop": "supermarket"}}, {"type": "node", "id": 9587521823, "lat": -1.2930205, "lon": 36.7928528, "tags": {"branch": "Chaka Rd", "brand": "QuickMart", "brand:wikidata": "Q113012659", "name": "QuickMart", "shop": "supermarket"}}, {"type": "node", "id": 9597299463, "lat": -1.2886818, "lon": 36.9011525, "tags": {"name": "NAIVAS Greenspan", "shop": "supermarket"}}, {"type": "node", "id": 9732344063, "lat": -1.2789659, "lon": 36.9670309, "tags": {"name": "Quickmart Utawala Express", "shop": "supermarket"}}, {"type": "node", "id": 9734803597, "lat": -1.2583167, "lon": 36.9165902}, {"type": "node", "id": 9734803598, "lat": -1.2582867, "lon": 36.9167446}, {"type": "node", "id": 9734803599, "lat": -1.2583491, "lon": 36.9167567}, {"type": "node", "id": 9734803600, "lat": -1.2583791, "lon": 36.9166023}, {"type": "node", "id": 9772042869, "lat": -1.257191, "lon": 36.9244646}, {"type": "node", "id": 9772042870, "lat": -1.257261, "lon": 36.9244861}, {"type": "node", "id": 9772042871, "lat": -1.2572921, "lon": 36.9243848}, {"type": "node", "id": 9772042872, "lat": -1.2572221, "lon": 36.9243633}, {"type": "node", "id": 9800973665, "lat": -1.2882851, "lon": 36.9721582, "tags": {"name": "RSL", "shop": "supermarket"}}, {"type": "node", "id": 9971216892, "lat": -1.2905499, "lon": 36.7705147}, {"type": "node", "id": 9971216893, "lat": -1.2905308, "lon": 36.7705155}, {"type": "node", "id": 10006124580, "lat": -1.2880813, "lon": 36.8810641, "tags": {"name": "Quickmart BuruBuru", "shop": "supermarket"}}, {"type": "node", "id": 10132613367, "lat": -1.3166767, "lon": 36.9172963}, {"type": "node", "id": 10132613368, "lat": -1.3164823, "lon": 36.917514}, {"type": "node", "id": 10132613369, "lat": -1.3172185, "lon": 36.9180698}, {"type": "node", "id": 10132613370, "lat": -1.3173759, "lon": 36.9178428}, {"type": "node", "id": 10312720210, "lat": -1.3373573, "lon": 36.7324113, "tags": {"name": "KSPCA Market", "shop": "supermarket"}}, {"type": "node", "id": 10314763993, "lat": -1.2655723, "lon": 36.7409082, "tags": {"brand": "Naivas", "brand:wikidata": "Q18379067", "name": "Naivas", "name:en": "Naivas", "shop": "supermarket"}}, {"type": "node", "id": 10600729498, "lat": -1.2209148, "lon": 36.9143388, "tags": {"shop": "supermarket", "wheelchair": "no"}}, {"type": "node", "id": 10637141721, "lat": -1.288442, "lon": 36.8267881, "tags": {"addr:city": "Nairobi", "addr:postcode": "00100", "addr:street": "Moi Avenue", "alt_name": "Quickmart Pioneer", "brand": "QuickMart", "brand:wikidata": "Q113012659", "name": "QuickMart", "phone": "+254 719 225511", "shop": "supermarket"}}, {"type": "node", "id": 10648806292, "lat": -1.2764323, "lon": 36.8293997, "tags": {"check_date": "2023-05-11", "name": "Western supermarket", "shop": "supermarket"}}, {"type": "node", "id": 10770010444, "lat": -1.1780415, "lon": 36.9393137, "tags": {"check_date": "2023-03-28", "description": "A nice place to chill", "internet_access": "wlan", "internet_access:fee": "no", "name": "Kendys supermarket", "payment:cash": "yes", "shop": "supermarket", "wheelchair": "yes"}}, {"type": "node", "id": 10803671733, "lat": -1.2912181, "lon": 36.7698405, "tags": {"brand": "Carrefour", "shop": "supermarket"}}, {"type": "node", "id": 10925121156, "lat": -1.2911055, "lon": 36.7882856, "tags": {"addr:city": "Nairobi", "addr:street": "Tigoni Road", "brand": "Naivas", "brand:wikidata": "Q18379067", "name": "Naivas", "opening_hours": "Mo-Su 08:00-21:00", "operator": "Naivas", "shop": "supermarket"}}, {"type": "node", "id": 10971311231, "lat": -1.2831641, "lon": 36.7369888, "tags": {"name": "Naivas", "shop": "supermarket"}}, {"type": "node", "id": 10997396406, "lat": -1.2888004, "lon": 36.9713216, "tags": {"name": "Fraliz Supermarket", "shop": "supermarket"}}, {"type": "node", "id": 11001534044, "lat": -1.2210507, "lon": 36.9131802, "tags": {"check_date": "2023-06-23", "internet_access": "no", "name": "Lawmik Mini Shop", "payment:cards": "no", "payment:cash": "yes", "payment:credit_cards": "no", "payment:debit_cards": "no", "shop": "supermarket", "source": "local knowledge", "toilets": "no", "wheelchair": "no"}}, {"type": "node", "id": 11005640706, "lat": -1.2886603, "lon": 36.9719611, "tags": {"name": "Dana's Supermarket", "shop": "supermarket"}}, {"type": "node", "id": 11361822725, "lat": -1.2606429, "lon": 36.8020471, "tags": {"alt_name": "Carrefour Sarit", "brand": "Carrefour", "brand:wikidata": "Q217599", "name": "Carrefour", "shop": "supermarket"}}, {"type": "node", "id": 11370972617, "lat": -1.2567718, "lon": 36.8031828, "tags": {"brand": "Carrefour", "brand:wikidata": "Q217599", "name": "Carrefour", "payment:cash": "yes", "payment:credit_cards": "yes", "payment:debit_cards": "yes", "shop": "supermarket"}}, {"type": "node", "id": 11370972618, "lat": -1.2612555, "lon": 36.8013198, "tags": {"brand": "Carrefour", "brand:wikidata": "Q217599", "name": "Carrefour", "shop": "supermarket"}}, {"type": "node", "id": 11383402150, "lat": -1.2689322, "lon": 36.7893777, "tags": {"addr:city": "Nairobi", "addr:postcode": "00100", "addr:street": "Riverside Drive", "name": "Chandarana Foodplus Riverside Square", "phone": "+254 110299093", "shop": "supermarket", "website": "https://www.foodplus.co.ke/"}}, {"type": "node", "id": 11443581169, "lat": -1.2131112, "lon": 36.8932075, "tags": {"entrance": "main", "name": "Khetia's Supermarket"}}, {"type": "node", "id": 11449581647, "lat": -1.3302508, "lon": 36.7146698, "tags": {"brand": "Naivas", "brand:wikidata": "Q18379067", "name": "Naivas", "shop": "supermarket", "website": "https://naivas.online/"}}, {"type": "node", "id": 12099665959, "lat": -1.2569718, "lon": 36.9231054, "tags": {"name": "Muhindi Mweusi Supermarket", "opening_hours": "24/7", "payment:cash": "yes", "payment:coins": "yes", "payment:credit_cards": "yes", "payment:debit_cards": "yes", "payment:mastercard": "yes", "payment:notes": "yes", "payment:visa": "yes", "payment:visa_debit": "yes", "shop": "supermarket"}}, {"type": "node", "id": 12373085549, "lat": -1.28438, "lon": 36.8314975}, {"type": "node", "id": 12842838078, "lat": -1.2644313, "lon": 36.7877097, "tags": {"name": "Chandarana market", "shop": "supermarket"}}, {"type": "node", "id": 13059881904, "lat": -1.2749836, "lon": 36.7947583, "tags": {"name": "Jaza supermarket", "shop": "supermarket"}}, {"type": "way", "id": 45529647, "nodes": [580333601, 580333609, 4042574588, 4042576999, 580333601], "tags": {"addr:housenumber": "United Nations Ave, Nairobi City", "building": "yes", "disused": "yes", "name": "United Nations Commissary", "shop": "supermarket"}}, {"type": "way", "id": 94987849, "nodes": [1102330697, 9971216893, 9971216892, 1102330699, 1102330622, 1102330705, 1102330697], "tags": {"building": "yes", "check_date": "2023-05-29", "name": "Market Ways Supermarket", "opening_hours": "09:00-18:00", "shop": "supermarket"}}, {"type": "way", "id": 101987513, "nodes": [1177395457, 1177395465, 6554564032, 6554564033, 1177395471, 6554564028, 6554564029, 6554564030, 6554564031, 1177395477, 1177395457], "tags": {"addr:city": "Nairobi", "addr:street": "Kenyatta Avenue", "building": "yes", "check_date": "2023-05-11", "description": "Fashion House", "name": "Tuskys Supermarket", "shop": "supermarket"}}, {"type": "way", "id": 103156419, "nodes": [1191116653, 1191116584, 1191116544, 1191116684, 1191116639, 1191116536, 1191116669, 1191116653], "tags": {"addr:housenumber": "Langata Rd, Nairobi", "building": "yes", "name": "Uchumi Langata Hyper", "shop": "supermarket"}}, {"type": "way", "id": 123256650, "nodes": [1375162471, 1375162459, 1375162479, 1375162494, 12373085549, 1375162493, 1375162462, 6431597862, 6431597863, 6431597861, 6431597860, 1375162471], "tags": {"addr:city": "Nairobi", "addr:street": "Racecourse Road", "building": "yes", "check_date": "2023-04-03", "name": "Tusky's OTC", "shop": "supermarket"}}, {"type": "way", "id": 123316939, "nodes": [1375622697, 1375622745, 6573879252, 6573879253, 1375622697], "tags": {"addr:city": "Nairobi", "addr:street": "Tom Mboya Street", "building": "yes", "name": "Tusky's Supermaket", "name:it": "Tusky's", "shop": "supermarket", "smoking": "no"}}, {"type": "way", "id": 123451919, "nodes": [1376650010, 1376649988, 1376650016, 1376650068, 1376650071, 1376650010], "tags": {"addr:city": "Nairobi", "addr:street": "River Road", "building": "yes", "name": "Eastmatt", "shop": "supermarket"}}, {"type": "way", "id": 125105880, "nodes": [1390288198, 1390288173, 1390288178, 1390288207, 1390288198], "tags": {"addr:city": "Nairobi", "addr:street": "Accra Road", "building": "yes", "name": "Nairobi Matt Supermarket", "name:it": "Nairobi Matt", "shop": "supermarket"}}, {"type": "way", "id": 125305110, "nodes": [1392128469, 1392128432, 1392128357, 1392128368, 1392128363, 1392128367, 1392128469], "tags": {"addr:city": "Nairobi", "addr:street": "Landhies Road", "building": "yes", "name": "Tuskys Supermarket Jogoo Road", "shop": "supermarket"}}, {"type": "way", "id": 130035712, "nodes": [1433439041, 1433439190, 1433439162, 1433439018, 1433439017, 1433439449, 1433439107, 1433439052, 1433439041], "tags": {"addr:city": "Nairobi", "addr:street": "Jogoo Road", "building": "yes", "name": "Uchumi Supermarket", "shop": "supermarket"}}, {"type": "way", "id": 130231619, "nodes": [1435262879, 1435262845, 1435262757, 1435262708, 1435262706, 1435262822, 1435262879], "tags": {"addr:city": "Nairobi", "addr:street": "Ngara Road", "building": "yes", "name": "Homechoice Supermarket", "shop": "supermarket"}}, {"type": "way", "id": 164581793, "nodes": [1762008308, 1762008309, 1762008307, 1762008306, 1762008308], "tags": {"addr:city": "Nairobi", "addr:street": "Doonholm Road", "building": "commercial", "name": "Kamindi Selfridges Supermarket", "opening_hours": "Mo-Su 08:00-22:00", "shop": "supermarket"}}, {"type": "way", "id": 164583038, "nodes": [1762030993, 1762030999, 1762031002, 1762030992, 1762031001, 1762032250, 1762032251, 4270236321, 1762030993], "tags": {"addr:city": "Embakasi", "addr:street": "Savannah Road", "name": "Greenspan Shopping Mall", "shop": "supermarket"}}, {"type": "way", "id": 225678574, "nodes": [2344345563, 2344345564, 2344345565, 2344345566, 2344345563], "tags": {"addr:city": "Nairobi", "addr:street": "Limuru Road", "building": "yes", "building:levels": "1", "name": "Gigiri Supermarket", "opening_hours": "Mo-Su 00:00-00:00", "shop": "supermarket"}}, {"type": "way", "id": 245718945, "nodes": [2528594221, 2528594223, 2528594224, 2528594225, 2528594221], "tags": {"addr:city": "Nairobi", "addr:street": "Jogoo Road", "building": "yes", "name": "Rikana Supermarket", "shop": "supermarket"}}, {"type": "way", "id": 496143803, "nodes": [4878721136, 4878721132, 4878721134, 4878721133, 4878721135, 4878721136], "tags": {"addr:city": "Nairobi", "addr:street": "Lower Kabete Road", "building": "yes", "name": "Spring Valley Supermarket (1979)", "shop": "supermarket"}}, {"type": "way", "id": 553296856, "nodes": [5341086838, 5341086839, 5341086840, 5341086841, 5341086842, 5341086838], "tags": {"addr:city": "Nairobi", "addr:street": "Ngara Road", "building": "yes", "name": "Chandarana Supermarket", "shop": "supermarket"}}, {"type": "way", "id": 554220742, "nodes": [5348815016, 5348815017, 5348815018, 5348815019, 5348815016], "tags": {"addr:city": "Nairobi", "addr:street": "Kiambu Road", "brand": "Naivas", "brand:wikidata": "Q18379067", "building": "yes", "name": "Naivas Food Market", "operator": "Naivas", "shop": "supermarket"}}, {"type": "way", "id": 582336509, "nodes": [5569622234, 5569622235, 5569622236, 5569622237, 5569622234], "tags": {"addr:city": "Nairobi", "addr:street": "Muindi Mbingu Street", "brand": "Naivas", "brand:wikidata": "Q18379067", "building": "yes", "check_date": "2024-09-06", "name": "Naivas", "shop": "supermarket"}}, {"type": "way", "id": 688404842, "nodes": [6455285768, 6455285769, 6455285770, 6455285771, 6455285768], "tags": {"building": "yes", "name": "Cleanshelf Supermarket", "shop": "supermarket"}}, {"type": "way", "id": 882868408, "nodes": [8210385358, 8210385359, 8210385360, 8210385361, 8210385358], "tags": {"addr:city": "Nairobi", "addr:street": "Kamiti Road", "brand": "Quickmart", "building": "yes", "name": "Quickmart Shopping Centre", "operator": "Quickmart", "shop": "supermarket"}}, {"type": "way", "id": 882868409, "nodes": [8210385362, 8210385363, 11443581169, 8210385364, 8210385365, 8210385366, 8210385367, 8210385368, 8210385362], "tags": {"addr:city": "Zimmerman", "addr:street": "Kamiti Road", "building": "yes", "name": "Khetia's Supermarket Mirema", "operator": "Tuskys", "shop": "supermarket"}}, {"type": "way", "id": 1059550934, "nodes": [9734803600, 9734803599, 9734803598, 9734803597, 9734803600], "tags": {"brand": "Naivas", "brand:wikidata": "Q18379067", "building": "yes", "name": "Naivas", "shop": "supermarket"}}, {"type": "way", "id": 1063935033, "nodes": [9772042872, 9772042871, 9772042870, 9772042869, 9772042872], "tags": {"building": "yes", "name": "Magunas Supermarket", "shop": "supermarket"}}, {"type": "way", "id": 1107378450, "nodes": [10132613367, 10132613368, 10132613369, 10132613370, 10132613367], "tags": {"brand": "Naivas", "brand:wikidata": "Q18379067", "building": "yes", "building:levels": "2", "name": "Naivas Embakassi", "opening_hours": "Mo-Su 08:00-22:00", "payment:app": "yes", "payment:cash": "yes", "payment:credit_cards": "yes", "payment:debit_cards": "yes", "shop": "supermarket"}}]}